CCSDS_OMM_VERS = 2.0
CREATION_DATE  = 
ORIGINATOR     = 

OBJECT_NAME    = STARLINK-37022
OBJECT_ID      = 2026-044A
CENTER_NAME    = EARTH
REF_FRAME      = TEME
TIME_SYSTEM    = UTC
MEAN_ELEMENT_THEORY = SGP/SGP4

EPOCH          = 2026-04-05T14:00:03.000384
MEAN_MOTION    = 15.42300604
ECCENTRICITY   = .00022562
INCLINATION    = 97.2853
RA_OF_ASC_NODE = 56.8294
ARG_OF_PERICENTER = 111.5204
MEAN_ANOMALY   = 95.3136

EPHEMERIS_TYPE = 0
CLASSIFICATION_TYPE = U
NORAD_CAT_ID   = 68101
ELEMENT_SET_NO = 999
REV_AT_EPOCH   = 572
BSTAR          = -.55431452E-1
MEAN_MOTION_DOT = -.2111843E-1
MEAN_MOTION_DDOT = 0

CCSDS_OMM_VERS = 2.0
CREATION_DATE  = 
ORIGINATOR     = 

OBJECT_NAME    = STARLINK-37046
OBJECT_ID      = 2026-044B
CENTER_NAME    = EARTH
REF_FRAME      = TEME
TIME_SYSTEM    = UTC
MEAN_ELEMENT_THEORY = SGP/SGP4

EPOCH          = 2026-04-05T14:00:03.000384
MEAN_MOTION    = 15.41999848
ECCENTRICITY   = .00026137
INCLINATION    = 97.2855
RA_OF_ASC_NODE = 56.8391
ARG_OF_PERICENTER = 95.2522
MEAN_ANOMALY   = 128.2904

EPHEMERIS_TYPE = 0
CLASSIFICATION_TYPE = U
NORAD_CAT_ID   = 68102
ELEMENT_SET_NO = 999
REV_AT_EPOCH   = 572
BSTAR          = -.50464114E-1
MEAN_MOTION_DOT = -.1924988E-1
MEAN_MOTION_DDOT = 0

CCSDS_OMM_VERS = 2.0
CREATION_DATE  = 
ORIGINATOR     = 

OBJECT_NAME    = STARLINK-37018
OBJECT_ID      = 2026-044C
CENTER_NAME    = EARTH
REF_FRAME      = TEME
TIME_SYSTEM    = UTC
MEAN_ELEMENT_THEORY = SGP/SGP4

EPOCH          = 2026-04-05T14:00:03.000384
MEAN_MOTION    = 15.42101072
ECCENTRICITY   = .00023379
INCLINATION    = 97.2851
RA_OF_ASC_NODE = 56.8452
ARG_OF_PERICENTER = 98.0024
MEAN_ANOMALY   = 139.8193

EPHEMERIS_TYPE = 0
CLASSIFICATION_TYPE = U
NORAD_CAT_ID   = 68103
ELEMENT_SET_NO = 999
REV_AT_EPOCH   = 567
BSTAR          = -.50771703E-1
MEAN_MOTION_DOT = -.1941255E-1
MEAN_MOTION_DDOT = 0

CCSDS_OMM_VERS = 2.0
CREATION_DATE  = 
ORIGINATOR     = 

OBJECT_NAME    = STARLINK-37041
OBJECT_ID      = 2026-044D
CENTER_NAME    = EARTH
REF_FRAME      = TEME
TIME_SYSTEM    = UTC
MEAN_ELEMENT_THEORY = SGP/SGP4

EPOCH          = 2026-04-05T14:00:03.000384
MEAN_MOTION    = 15.42545621
ECCENTRICITY   = .0002217
INCLINATION    = 97.2848
RA_OF_ASC_NODE = 56.8548
ARG_OF_PERICENTER = 108.3539
MEAN_ANOMALY   = 156.5634

EPHEMERIS_TYPE = 0
CLASSIFICATION_TYPE = U
NORAD_CAT_ID   = 68104
ELEMENT_SET_NO = 999
REV_AT_EPOCH   = 567
BSTAR          = -.54491941E-1
MEAN_MOTION_DOT = -.2095322E-1
MEAN_MOTION_DDOT = 0

CCSDS_OMM_VERS = 2.0
CREATION_DATE  = 
ORIGINATOR     = 

OBJECT_NAME    = STARLINK-37021
OBJECT_ID      = 2026-044E
CENTER_NAME    = EARTH
REF_FRAME      = TEME
TIME_SYSTEM    = UTC
MEAN_ELEMENT_THEORY = SGP/SGP4

EPOCH          = 2026-04-05T14:00:03.000384
MEAN_MOTION    = 15.46136025
ECCENTRICITY   = .00021876
INCLINATION    = 97.2853
RA_OF_ASC_NODE = 56.8498
ARG_OF_PERICENTER = 99.1978
MEAN_ANOMALY   = 146.7147

EPHEMERIS_TYPE = 0
CLASSIFICATION_TYPE = U
NORAD_CAT_ID   = 68105
ELEMENT_SET_NO = 999
REV_AT_EPOCH   = 567
BSTAR          = -.44033944E-1
MEAN_MOTION_DOT = -.1932412E-1
MEAN_MOTION_DDOT = 0

CCSDS_OMM_VERS = 2.0
CREATION_DATE  = 
ORIGINATOR     = 

OBJECT_NAME    = STARLINK-37024
OBJECT_ID      = 2026-044F
CENTER_NAME    = EARTH
REF_FRAME      = TEME
TIME_SYSTEM    = UTC
MEAN_ELEMENT_THEORY = SGP/SGP4

EPOCH          = 2026-04-05T14:00:03.000384
MEAN_MOTION    = 15.43403299
ECCENTRICITY   = .00020687
INCLINATION    = 97.2848
RA_OF_ASC_NODE = 56.8701
ARG_OF_PERICENTER = 104.4904
MEAN_ANOMALY   = 182.8829

EPHEMERIS_TYPE = 0
CLASSIFICATION_TYPE = U
NORAD_CAT_ID   = 68106
ELEMENT_SET_NO = 999
REV_AT_EPOCH   = 567
BSTAR          = -.48472657E-1
MEAN_MOTION_DOT = -.1936874E-1
MEAN_MOTION_DDOT = 0

CCSDS_OMM_VERS = 2.0
CREATION_DATE  = 
ORIGINATOR     = 

OBJECT_NAME    = STARLINK-37005
OBJECT_ID      = 2026-044G
CENTER_NAME    = EARTH
REF_FRAME      = TEME
TIME_SYSTEM    = UTC
MEAN_ELEMENT_THEORY = SGP/SGP4

EPOCH          = 2026-04-05T14:00:03.000384
MEAN_MOTION    = 15.42569094
ECCENTRICITY   = .000186
INCLINATION    = 97.2851
RA_OF_ASC_NODE = 56.8479
ARG_OF_PERICENTER = 106.9712
MEAN_ANOMALY   = 142.7794

EPHEMERIS_TYPE = 0
CLASSIFICATION_TYPE = U
NORAD_CAT_ID   = 68107
ELEMENT_SET_NO = 999
REV_AT_EPOCH   = 567
BSTAR          = -.54565282E-1
MEAN_MOTION_DOT = -.2099068E-1
MEAN_MOTION_DDOT = 0

CCSDS_OMM_VERS = 2.0
CREATION_DATE  = 
ORIGINATOR     = 

OBJECT_NAME    = STARLINK-37017
OBJECT_ID      = 2026-044H
CENTER_NAME    = EARTH
REF_FRAME      = TEME
TIME_SYSTEM    = UTC
MEAN_ELEMENT_THEORY = SGP/SGP4

EPOCH          = 2026-04-05T14:00:03.000384
MEAN_MOTION    = 15.43284633
ECCENTRICITY   = .00022952
INCLINATION    = 97.2855
RA_OF_ASC_NODE = 56.8774
ARG_OF_PERICENTER = 100.0999
MEAN_ANOMALY   = 203.2800

EPHEMERIS_TYPE = 0
CLASSIFICATION_TYPE = U
NORAD_CAT_ID   = 68108
ELEMENT_SET_NO = 999
REV_AT_EPOCH   = 567
BSTAR          = -.4871142E-1
MEAN_MOTION_DOT = -.1938561E-1
MEAN_MOTION_DDOT = 0

CCSDS_OMM_VERS = 2.0
CREATION_DATE  = 
ORIGINATOR     = 

OBJECT_NAME    = STARLINK-36833
OBJECT_ID      = 2026-044J
CENTER_NAME    = EARTH
REF_FRAME      = TEME
TIME_SYSTEM    = UTC
MEAN_ELEMENT_THEORY = SGP/SGP4

EPOCH          = 2026-04-05T14:00:03.000384
MEAN_MOTION    = 15.44165568
ECCENTRICITY   = .00019392
INCLINATION    = 97.2854
RA_OF_ASC_NODE = 56.8855
ARG_OF_PERICENTER = 99.4124
MEAN_ANOMALY   = 225.8569

EPHEMERIS_TYPE = 0
CLASSIFICATION_TYPE = U
NORAD_CAT_ID   = 68109
ELEMENT_SET_NO = 999
REV_AT_EPOCH   = 572
BSTAR          = -.47360351E-1
MEAN_MOTION_DOT = -.1941446E-1
MEAN_MOTION_DDOT = 0

CCSDS_OMM_VERS = 2.0
CREATION_DATE  = 
ORIGINATOR     = 

OBJECT_NAME    = STARLINK-36830
OBJECT_ID      = 2026-044K
CENTER_NAME    = EARTH
REF_FRAME      = TEME
TIME_SYSTEM    = UTC
MEAN_ELEMENT_THEORY = SGP/SGP4

EPOCH          = 2026-04-05T14:00:03.000384
MEAN_MOTION    = 15.43590450
ECCENTRICITY   = .0002064
INCLINATION    = 97.2854
RA_OF_ASC_NODE = 56.8821
ARG_OF_PERICENTER = 98.4339
MEAN_ANOMALY   = 217.3157

EPHEMERIS_TYPE = 0
CLASSIFICATION_TYPE = U
NORAD_CAT_ID   = 68110
ELEMENT_SET_NO = 999
REV_AT_EPOCH   = 572
BSTAR          = -.48070528E-1
MEAN_MOTION_DOT = -.193342E-1
MEAN_MOTION_DDOT = 0

CCSDS_OMM_VERS = 2.0
CREATION_DATE  = 
ORIGINATOR     = 

OBJECT_NAME    = STARLINK-36791
OBJECT_ID      = 2026-044L
CENTER_NAME    = EARTH
REF_FRAME      = TEME
TIME_SYSTEM    = UTC
MEAN_ELEMENT_THEORY = SGP/SGP4

EPOCH          = 2026-04-05T14:00:03.000384
MEAN_MOTION    = 15.44093901
ECCENTRICITY   = .00016799
INCLINATION    = 97.2852
RA_OF_ASC_NODE = 56.8892
ARG_OF_PERICENTER = 105.7810
MEAN_ANOMALY   = 235.4842

EPHEMERIS_TYPE = 0
CLASSIFICATION_TYPE = U
NORAD_CAT_ID   = 68111
ELEMENT_SET_NO = 999
REV_AT_EPOCH   = 567
BSTAR          = -.4717015E-1
MEAN_MOTION_DOT = -.1930079E-1
MEAN_MOTION_DDOT = 0

CCSDS_OMM_VERS = 2.0
CREATION_DATE  = 
ORIGINATOR     = 

OBJECT_NAME    = STARLINK-36893
OBJECT_ID      = 2026-044M
CENTER_NAME    = EARTH
REF_FRAME      = TEME
TIME_SYSTEM    = UTC
MEAN_ELEMENT_THEORY = SGP/SGP4

EPOCH          = 2026-04-05T14:00:03.000384
MEAN_MOTION    = 15.44347719
ECCENTRICITY   = .00016001
INCLINATION    = 97.2852
RA_OF_ASC_NODE = 56.8971
ARG_OF_PERICENTER = 99.6847
MEAN_ANOMALY   = 254.2607

EPHEMERIS_TYPE = 0
CLASSIFICATION_TYPE = U
NORAD_CAT_ID   = 68112
ELEMENT_SET_NO = 999
REV_AT_EPOCH   = 572
BSTAR          = -.46994654E-1
MEAN_MOTION_DOT = -.1938571E-1
MEAN_MOTION_DDOT = 0

