STARLINK-37022          
1 68101U 26044A   26095.58336806 -.02111843  00000+0 -55431-1 0  9993
2 68101  97.2853  56.8294 0002256 111.5204  95.3136 15.42300604  5721
STARLINK-37046          
1 68102U 26044B   26095.58336806 -.01924988  00000+0 -50464-1 0  9996
2 68102  97.2855  56.8391 0002613  95.2522 128.2904 15.41999848  5722
STARLINK-37018          
1 68103U 26044C   26095.58336806 -.01941255  00000+0 -50772-1 0  9995
2 68103  97.2851  56.8452 0002337  98.0024 139.8193 15.42101072  5675
STARLINK-37041          
1 68104U 26044D   26095.58336806 -.02095322  00000+0 -54492-1 0  9995
2 68104  97.2848  56.8548 0002217 108.3539 156.5634 15.42545621  5679
STARLINK-37021          
1 68105U 26044E   26095.58336806 -.01932412  00000+0 -44034-1 0  9996
2 68105  97.2853  56.8498 0002187  99.1978 146.7147 15.46136025  5678
STARLINK-37024          
1 68106U 26044F   26095.58336806 -.01936874  00000+0 -48473-1 0  9994
2 68106  97.2848  56.8701 0002068 104.4904 182.8829 15.43403299  5672
STARLINK-37005          
1 68107U 26044G   26095.58336806 -.02099068  00000+0 -54565-1 0  9990
2 68107  97.2851  56.8479 0001860 106.9712 142.7794 15.42569094  5673
STARLINK-37017          
1 68108U 26044H   26095.58336806 -.01938561  00000+0 -48711-1 0  9996
2 68108  97.2855  56.8774 0002295 100.0999 203.2800 15.43284633  5676
STARLINK-36833          
1 68109U 26044J   26095.58336806 -.01941446  00000+0 -47360-1 0  9992
2 68109  97.2854  56.8855 0001939  99.4124 225.8569 15.44165568  5725
STARLINK-36830          
1 68110U 26044K   26095.58336806 -.01933420  00000+0 -48071-1 0  9997
2 68110  97.2854  56.8821 0002064  98.4339 217.3157 15.43590450  5727
STARLINK-36791          
1 68111U 26044L   26095.58336806 -.01930079  00000+0 -47170-1 0  9994
2 68111  97.2852  56.8892 0001679 105.7810 235.4842 15.44093901  5677
STARLINK-36893          
1 68112U 26044M   26095.58336806 -.01938571  00000+0 -46995-1 0  9994
2 68112  97.2852  56.8971 0001600  99.6847 254.2607 15.44347719  5724
